[{"OBJECT_NAME":"STARLINK-11540 [DTC]","OBJECT_ID":"2025-006L","EPOCH":"2026-03-09T06:20:10.973760","MEAN_MOTION":15.70996683,"ECCENTRICITY":0.00018148,"INCLINATION":42.9991,"RA_OF_ASC_NODE":142.6199,"ARG_OF_PERICENTER":226.9983,"MEAN_ANOMALY":133.0733,"EPHEMERIS_TYPE":0,"CLASSIFICATION_TYPE":"U","NORAD_CAT_ID":62564,"ELEMENT_SET_NO":999,"REV_AT_EPOCH":6653,"BSTAR":0.0017852151,"MEAN_MOTION_DOT":0.0023682,"MEAN_MOTION_DDOT":0},{"OBJECT_NAME":"FLOCK 4BE-10","OBJECT_ID":"2024-149AM","EPOCH":"2026-03-09T23:11:04.477920","MEAN_MOTION":15.73804605,"ECCENTRICITY":0.00059918,"INCLINATION":97.3736,"RA_OF_ASC_NODE":155.157,"ARG_OF_PERICENTER":229.3829,"MEAN_ANOMALY":130.6914,"EPHEMERIS_TYPE":0,"CLASSIFICATION_TYPE":"U","NORAD_CAT_ID":60503,"ELEMENT_SET_NO":999,"REV_AT_EPOCH":8723,"BSTAR":0.0018232079,"MEAN_MOTION_DOT":0.00264399,"MEAN_MOTION_DDOT":0}]
